{
  "norad_id": 25159,
  "name": "ORBCOMM FM04",
  "history": [
    {
      "epoch": "2026-03-28T16:58:35.419296",
      "apogee_km": 800.6860485252619,
      "perigee_km": 745.6638543708204,
      "latitude_deg": -67.42957682564531,
      "longitude_deg": 3.8060214398428798,
      "semi_major_axis_km": 7151.311951448041,
      "eccentricity": 0.003847,
      "inclination_deg": 107.9603,
      "raan_deg": 3.8241,
      "arg_perigee_deg": 107.7162,
      "mean_anomaly_deg": 252.8183,
      "mean_motion_rev_day": 14.3556935
    }
  ]
}